{"type": "FeatureCollection", "features": [ {"type": "Feature", "properties": {"norad_id": 34001, "name": "COSMOS 2251 DEB", "group": "cosmos-2251-debris", "lat": -52.50837969382578, "lon": -105.62127771497049, "alt_km": 765.8846958164968, "timestamp": "2025-12-15T14:57:58.205322+00:00", "meta": {"OBJECT_NAME": "COSMOS 2251 DEB", "OBJECT_ID": "1993-036GL", "EPOCH": "2025-12-14T21:06:44.093664", "MEAN_MOTION": 14.37101099, "ECCENTRICITY": 0.0020061, "INCLINATION": 74.0389, "RA_OF_ASC_NODE": 277.6524, "ARG_OF_PERICENTER": 358.1385, "MEAN_ANOMALY": 59.3599, "EPHEMERIS_TYPE": 0, "CLASSIFICATION_TYPE": "U", "NORAD_CAT_ID": 34001, "ELEMENT_SET_NO": 999, "REV_AT_EPOCH": 88177, "BSTAR": 0.0002148399, "MEAN_MOTION_DOT": 6.13e-06, "MEAN_MOTION_DDOT": 0}, "tle": {"line1": "1 34001U 93036GL  25348.87967701  .00000613  00000+0  21484-3 0  9997", "line2": "2 34001  74.0389 277.6524 0020061 358.1385  59.3599 14.37101099881772"}}, "geometry": {"type": "Point", "coordinates": [-105.62127771497049, -52.50837969382578]}}, {"type": "Feature", "properties": {"norad_id": 34003, "name": "COSMOS 2251 DEB", "group": "cosmos-2251-debris", "lat": 1.0808059889776436, "lon": -79.40115310866426, "alt_km": 776.6374948966695, "timestamp": "2025-12-15T14:57:58.205331+00:00", "meta": {"OBJECT_NAME": "COSMOS 2251 DEB", "OBJECT_ID": "1993-036GN", "EPOCH": "2025-12-14T21:36:56.499552", "MEAN_MOTION": 13.8416537, "ECCENTRICITY": 0.0274563, "INCLINATION": 74.0769, "RA_OF_ASC_NODE": 281.5067, "ARG_OF_PERICENTER": 33.033, "MEAN_ANOMALY": 328.7613, "EPHEMERIS_TYPE": 0, "CLASSIFICATION_TYPE": "U", "NORAD_CAT_ID": 34003, "ELEMENT_SET_NO": 999, "REV_AT_EPOCH": 84455, "BSTAR": 0.0016495834, "MEAN_MOTION_DOT": 2.44e-05, "MEAN_MOTION_DDOT": 0}, "tle": {"line1": "1 34003U 93036GN  25348.90065393  .00002440  00000+0  16496-2 0  9995", "line2": "2 34003  74.0769 281.5067 0274563  33.0330 328.7613 13.84165370844557"}}, "geometry": {"type": "Point", "coordinates": [-79.40115310866426, 1.0808059889776436]}}, {"type": "Feature", "properties": {"norad_id": 34004, "name": "COSMOS 2251 DEB", "group": "cosmos-2251-debris", "lat": -43.62508953210207, "lon": -68.13185103138437, "alt_km": 711.4683515579609, "timestamp": "2025-12-15T14:57:58.205340+00:00", "meta": {"OBJECT_NAME": "COSMOS 2251 DEB", "OBJECT_ID": "1993-036GP", "EPOCH": "2025-12-14T22:36:23.906304", "MEAN_MOTION": 14.49034316, "ECCENTRICITY": 0.0033394, "INCLINATION": 74.0349, "RA_OF_ASC_NODE": 308.9799, "ARG_OF_PERICENTER": 320.9032, "MEAN_ANOMALY": 38.9714, "EPHEMERIS_TYPE": 0, "CLASSIFICATION_TYPE": "U", "NORAD_CAT_ID": 34004, "ELEMENT_SET_NO": 999, "REV_AT_EPOCH": 88062, "BSTAR": 0.00089899725, "MEAN_MOTION_DOT": 3.409e-05, "MEAN_MOTION_DDOT": 0}, "tle": {"line1": "1 34004U 93036GP  25348.94194336  .00003409  00000+0  89900-3 0  9997", "line2": "2 34004  74.0349 308.9799 0033394 320.9032  38.9714 14.49034316880627"}}, "geometry": {"type": "Point", "coordinates": [-68.13185103138437, -43.62508953210207]}}, {"type": "Feature", "properties": {"norad_id": 34005, "name": "COSMOS 2251 DEB", "group": "cosmos-2251-debris", "lat": 40.424658386918985, "lon": 14.214643041898738, "alt_km": 768.7254068501452, "timestamp": "2025-12-15T14:57:58.205350+00:00", "meta": {"OBJECT_NAME": "COSMOS 2251 DEB", "OBJECT_ID": "1993-036GQ", "EPOCH": "2025-12-14T23:38:19.279968", "MEAN_MOTION": 14.40305874, "ECCENTRICITY": 0.00209224, "INCLINATION": 74.0441, "RA_OF_ASC_NODE": 209.4993, "ARG_OF_PERICENTER": 327.3092, "MEAN_ANOMALY": 100.062, "EPHEMERIS_TYPE": 0, "CLASSIFICATION_TYPE": "U", "NORAD_CAT_ID": 34005, "ELEMENT_SET_NO": 999, "REV_AT_EPOCH": 88411, "BSTAR": 0.00011236217, "MEAN_MOTION_DOT": 3.3e-06, "MEAN_MOTION_DDOT": 0}, "tle": {"line1": "1 34005U 93036GQ  25348.98494537  .00000330  00000+0  11236-3 0  9995", "line2": "2 34005  74.0441 209.4993 0020922 327.3092 100.0620 14.40305874884118"}}, "geometry": {"type": "Point", "coordinates": [14.214643041898738, 40.424658386918985]}}, {"type": "Feature", "properties": {"norad_id": 34006, "name": "COSMOS 2251 DEB", "group": "cosmos-2251-debris", "lat": -63.74944653681621, "lon": -7.084712343871782, "alt_km": 596.7131512125843, "timestamp": "2025-12-15T14:57:58.205359+00:00", "meta": {"OBJECT_NAME": "COSMOS 2251 DEB", "OBJECT_ID": "1993-036GR", "EPOCH": "2025-12-14T12:26:21.399936", "MEAN_MOTION": 14.94921622, "ECCENTRICITY": 0.00110146, "INCLINATION": 74.053, "RA_OF_ASC_NODE": 139.7033, "ARG_OF_PERICENTER": 82.2407, "MEAN_ANOMALY": 340.5667, "EPHEMERIS_TYPE": 0, "CLASSIFICATION_TYPE": "U", "NORAD_CAT_ID": 34006, "ELEMENT_SET_NO": 999, "REV_AT_EPOCH": 88695, "BSTAR": 0.0038140177, "MEAN_MOTION_DOT": 0.00041895, "MEAN_MOTION_DDOT": 0}, "tle": {"line1": "1 34006U 93036GR  25348.51830324  .00041895  00000+0  38140-2 0  9996", "line2": "2 34006  74.0530 139.7033 0011014  82.2407 340.5667 14.94921622886957"}}, "geometry": {"type": "Point", "coordinates": [-7.084712343871782, -63.74944653681621]}}, {"type": "Feature", "properties": {"norad_id": 34007, "name": "COSMOS 2251 DEB", "group": "cosmos-2251-debris", "lat": -51.76423228962591, "lon": -177.32670149443484, "alt_km": 699.4746689767726, "timestamp": "2025-12-15T14:57:58.205367+00:00", "meta": {"OBJECT_NAME": "COSMOS 2251 DEB", "OBJECT_ID": "1993-036GS", "EPOCH": "2025-12-14T23:09:00.034272", "MEAN_MOTION": 14.64804389, "ECCENTRICITY": 0.00442726, "INCLINATION": 74.0193, "RA_OF_ASC_NODE": 342.6137, "ARG_OF_PERICENTER": 116.8572, "MEAN_ANOMALY": 243.7133, "EPHEMERIS_TYPE": 0, "CLASSIFICATION_TYPE": "U", "NORAD_CAT_ID": 34007, "ELEMENT_SET_NO": 999, "REV_AT_EPOCH": 89112, "BSTAR": 0.00051532024, "MEAN_MOTION_DOT": 2.759e-05, "MEAN_MOTION_DDOT": 0}, "tle": {"line1": "1 34007U 93036GS  25348.96458373  .00002759  00000+0  51532-3 0  9993", "line2": "2 34007  74.0193 342.6137 0044272 116.8572 243.7133 14.64804389891126"}}, "geometry": {"type": "Point", "coordinates": [-177.32670149443484, -51.76423228962591]}}, {"type": "Feature", "properties": {"norad_id": 34008, "name": "COSMOS 2251 DEB", "group": "cosmos-2251-debris", "lat": -28.729417260687452, "lon": -43.779881328515756, "alt_km": 769.5390346648583, "timestamp": "2025-12-15T14:57:58.205376+00:00", "meta": {"OBJECT_NAME": "COSMOS 2251 DEB", "OBJECT_ID": "1993-036GT", "EPOCH": "2025-12-14T09:42:11.017152", "MEAN_MOTION": 14.33147784, "ECCENTRICITY": 0.00243787, "INCLINATION": 74.0343, "RA_OF_ASC_NODE": 327.476, "ARG_OF_PERICENTER": 322.4075, "MEAN_ANOMALY": 199.4155, "EPHEMERIS_TYPE": 0, "CLASSIFICATION_TYPE": "U", "NORAD_CAT_ID": 34008, "ELEMENT_SET_NO": 999, "REV_AT_EPOCH": 87988, "BSTAR": 0.000171717, "MEAN_MOTION_DOT": 4.47e-06, "MEAN_MOTION_DDOT": 0}, "tle": {"line1": "1 34008U 93036GT  25348.40429418  .00000447  00000+0  17172-3 0  9995", "line2": "2 34008  74.0343 327.4760 0024378 322.4075 199.4155 14.33147784879880"}}, "geometry": {"type": "Point", "coordinates": [-43.779881328515756, -28.729417260687452]}}, {"type": "Feature", "properties": {"norad_id": 34009, "name": "COSMOS 2251 DEB", "group": "cosmos-2251-debris", "lat": 6.260674842686088, "lon": -26.533489619846936, "alt_km": 766.9141560632379, "timestamp": "2025-12-15T14:57:58.205385+00:00", "meta": {"OBJECT_NAME": "COSMOS 2251 DEB", "OBJECT_ID": "1993-036GU", "EPOCH": "2025-12-14T09:28:48.304992", "MEAN_MOTION": 14.33223761, "ECCENTRICITY": 0.00265625, "INCLINATION": 74.0371, "RA_OF_ASC_NODE": 333.9113, "ARG_OF_PERICENTER": 43.011, "MEAN_ANOMALY": 107.3013, "EPHEMERIS_TYPE": 0, "CLASSIFICATION_TYPE": "U", "NORAD_CAT_ID": 34009, "ELEMENT_SET_NO": 999, "REV_AT_EPOCH": 87969, "BSTAR": 0.00019319931, "MEAN_MOTION_DOT": 5.07e-06, "MEAN_MOTION_DDOT": 0}, "tle": {"line1": "1 34009U 93036GU  25348.39500353  .00000507  00000+0  19320-3 0  9996", "line2": "2 34009  74.0371 333.9113 0026562  43.0110 107.3013 14.33223761879699"}}, "geometry": {"type": "Point", "coordinates": [-26.533489619846936, 6.260674842686088]}}, {"type": "Feature", "properties": {"norad_id": 34010, "name": "COSMOS 2251 DEB", "group": "cosmos-2251-debris", "lat": 45.738913982432265, "lon": -65.61289991718924, "alt_km": 500.8750855258231, "timestamp": "2025-12-15T14:57:58.205394+00:00", "meta": {"OBJECT_NAME": "COSMOS 2251 DEB", "OBJECT_ID": "1993-036GV", "EPOCH": "2025-12-14T19:47:19.472352", "MEAN_MOTION": 15.19093521, "ECCENTRICITY": 0.00047335, "INCLINATION": 73.998, "RA_OF_ASC_NODE": 278.9364, "ARG_OF_PERICENTER": 65.3699, "MEAN_ANOMALY": 294.799, "EPHEMERIS_TYPE": 0, "CLASSIFICATION_TYPE": "U", "NORAD_CAT_ID": 34010, "ELEMENT_SET_NO": 999, "REV_AT_EPOCH": 89317, "BSTAR": 0.0026488359, "MEAN_MOTION_DOT": 0.00056007, "MEAN_MOTION_DDOT": 0}, "tle": {"line1": "1 34010U 93036GV  25348.82453093  .00056007  00000+0  26488-2 0  9992", "line2": "2 34010  73.9980 278.9364 0004733  65.3699 294.7990 15.19093521893174"}}, "geometry": {"type": "Point", "coordinates": [-65.61289991718924, 45.738913982432265]}}, {"type": "Feature", "properties": {"norad_id": 34011, "name": "COSMOS 2251 DEB", "group": "cosmos-2251-debris", "lat": 70.56346596446633, "lon": 90.4739824389408, "alt_km": 730.2946931937049, "timestamp": "2025-12-15T14:57:58.205403+00:00", "meta": {"OBJECT_NAME": "COSMOS 2251 DEB", "OBJECT_ID": "1993-036GW", "EPOCH": "2025-12-14T08:31:36.167808", "MEAN_MOTION": 14.41780718, "ECCENTRICITY": 0.00356469, "INCLINATION": 74.0148, "RA_OF_ASC_NODE": 327.1515, "ARG_OF_PERICENTER": 50.1637, "MEAN_ANOMALY": 310.2646, "EPHEMERIS_TYPE": 0, "CLASSIFICATION_TYPE": "U", "NORAD_CAT_ID": 34011, "ELEMENT_SET_NO": 999, "REV_AT_EPOCH": 87939, "BSTAR": 0.00091854974, "MEAN_MOTION_DOT": 2.998e-05, "MEAN_MOTION_DDOT": 0}, "tle": {"line1": "1 34011U 93036GW  25348.35527972  .00002998  00000+0  91855-3 0  9990", "line2": "2 34011  74.0148 327.1515 0035646  50.1637 310.2646 14.41780718879394"}}, "geometry": {"type": "Point", "coordinates": [90.4739824389408, 70.56346596446633]}}]}